start=new Date('2022-12-03T00:00:00.000Z').valueOf();
sats=[{"SEMIMAJOR_AXIS":"6925.345","NORAD_CAT_ID":"45672","TIME_SYSTEM":"UTC","MEAN_ANOMALY":"325.2180","RCS_SIZE":"LARGE","ELEMENT_SET_NO":"999","ECCENTRICITY":"0.00025360","MEAN_MOTION":"15.06401049","OBJECT_TYPE":"PAYLOAD","CLASSIFICATION_TYPE":"U","REF_FRAME":"TEME","BSTAR":"0.00006765900000","MEAN_MOTION_DDOT":"0.0000000000000","OBJECT_NAME":"STARLINK-1455","DECAY_DATE":null,"LAUNCH_DATE":"2020-06-04","APOAPSIS":"548.967","GP_ID":"219378894","EPOCH":"2022-12-02T17:54:21.420000","CENTER_NAME":"EARTH","MEAN_MOTION_DOT":"0.00000726","TLE_LINE2":"2 45672  53.0560 351.9633 0002536  34.8975 325.2180 15.06401049139348","REV_AT_EPOCH":"13934","MEAN_ELEMENT_THEORY":"SGP4","TLE_LINE1":"1 45672U 20035R   22336.74608125  .00000726  00000-0  67659-4 0  9995","COUNTRY_CODE":"US","FILE":"3679625","EPHEMERIS_TYPE":"0","PERIOD":"95.592","INCLINATION":"53.0560","SITE":"AFETR","ARG_OF_PERICENTER":"34.8975","RA_OF_ASC_NODE":"351.9633","OBJECT_ID":"2020-035R","PERIAPSIS":"545.454"},{"BSTAR":"0.00004250000000","MEAN_MOTION_DDOT":"0.0000000000000","OBJECT_NAME":"STARLINK-1456","DECAY_DATE":null,"LAUNCH_DATE":"2020-06-04","APOAPSIS":"548.361","GP_ID":"219323828","EPOCH":"2022-12-02T13:14:22.167744","SEMIMAJOR_AXIS":"6925.343","NORAD_CAT_ID":"45673","TIME_SYSTEM":"UTC","RCS_SIZE":"LARGE","MEAN_ANOMALY":"304.1406","ECCENTRICITY":"0.00016660","ELEMENT_SET_NO":"999","MEAN_MOTION":"15.06401954","OBJECT_TYPE":"PAYLOAD","CLASSIFICATION_TYPE":"U","REF_FRAME":"TEME","EPHEMERIS_TYPE":"0","PERIOD":"95.592","INCLINATION":"53.0563","SITE":"AFETR","ARG_OF_PERICENTER":"55.9741","RA_OF_ASC_NODE":"22.8332","OBJECT_ID":"2020-035S","PERIAPSIS":"546.054","CENTER_NAME":"EARTH","MEAN_MOTION_DOT":"0.00000352","TLE_LINE2":"2 45673  53.0563  22.8332 0001666  55.9741 304.1406 15.06401954138497","REV_AT_EPOCH":"13849","MEAN_ELEMENT_THEORY":"SGP4","TLE_LINE1":"1 45673U 20035S   22336.55164546  .00000352  00000-0  42500-4 0  9992","COUNTRY_CODE":"US","FILE":"3679083"},{"EPOCH":"2022-12-02T19:47:09.288384","GP_ID":"219356816","LAUNCH_DATE":"2020-06-04","APOAPSIS":"548.194","DECAY_DATE":null,"MEAN_MOTION_DDOT":"0.0000000000000","OBJECT_NAME":"STARLINK-1457","BSTAR":"0.00005401300000","REF_FRAME":"TEME","CLASSIFICATION_TYPE":"U","OBJECT_TYPE":"PAYLOAD","MEAN_MOTION":"15.06394557","ELEMENT_SET_NO":"999","ECCENTRICITY":"0.00013910","RCS_SIZE":"LARGE","MEAN_ANOMALY":"295.2769","TIME_SYSTEM":"UTC","NORAD_CAT_ID":"45674","SEMIMAJOR_AXIS":"6925.365","OBJECT_ID":"2020-035T","PERIAPSIS":"546.267","RA_OF_ASC_NODE":"21.6038","ARG_OF_PERICENTER":"64.8364","INCLINATION":"53.0564","SITE":"AFETR","PERIOD":"95.592","EPHEMERIS_TYPE":"0","FILE":"3679377","COUNTRY_CODE":"US","TLE_LINE1":"1 45674U 20035T   22336.82441306  .00000523  00000-0  54013-4 0  9997","MEAN_ELEMENT_THEORY":"SGP4","TLE_LINE2":"2 45674  53.0564  21.6038 0001391  64.8364 295.2769 15.06394557138542","REV_AT_EPOCH":"13854","MEAN_MOTION_DOT":"0.00000523","CENTER_NAME":"EARTH"},{"ARG_OF_PERICENTER":"64.5695","PERIAPSIS":"546.059","OBJECT_ID":"2020-035U","RA_OF_ASC_NODE":"22.8543","EPHEMERIS_TYPE":"0","PERIOD":"95.593","INCLINATION":"53.0555","SITE":"AFETR","TLE_LINE1":"1 45675U 20035U   22336.54797149  .00000226  00000-0  34079-4 0  9996","MEAN_MOTION_DOT":"0.00000226","TLE_LINE2":"2 45675  53.0555  22.8543 0001723  64.5695 295.5472 15.06387275138486","REV_AT_EPOCH":"13848","MEAN_ELEMENT_THEORY":"SGP4","FILE":"3679083","COUNTRY_CODE":"US","CENTER_NAME":"EARTH","MEAN_MOTION_DDOT":"0.0000000000000","OBJECT_NAME":"STARLINK-1458","GP_ID":"219323426","EPOCH":"2022-12-02T13:09:04.736736","DECAY_DATE":null,"LAUNCH_DATE":"2020-06-04","APOAPSIS":"548.446","BSTAR":"0.00003407900000","MEAN_MOTION":"15.06387275","OBJECT_TYPE":"PAYLOAD","ECCENTRICITY":"0.00017230","ELEMENT_SET_NO":"999","CLASSIFICATION_TYPE":"U","REF_FRAME":"TEME","SEMIMAJOR_AXIS":"6925.388","MEAN_ANOMALY":"295.5472","RCS_SIZE":"LARGE","NORAD_CAT_ID":"45675","TIME_SYSTEM":"UTC"},{"RCS_SIZE":"LARGE","MEAN_ANOMALY":"292.0838","TIME_SYSTEM":"UTC","NORAD_CAT_ID":"45676","SEMIMAJOR_AXIS":"6925.349","CLASSIFICATION_TYPE":"U","REF_FRAME":"TEME","OBJECT_TYPE":"PAYLOAD","MEAN_MOTION":"15.06399776","ELEMENT_SET_NO":"999","ECCENTRICITY":"0.00015180","BSTAR":"0.00010471000000","EPOCH":"2022-12-01T23:42:17.455392","GP_ID":"219347780","LAUNCH_DATE":"2020-06-04","APOAPSIS":"548.266","DECAY_DATE":null,"MEAN_MOTION_DDOT":"0.0000000000000","OBJECT_NAME":"STARLINK-1460","CENTER_NAME":"EARTH","FILE":"3679245","COUNTRY_CODE":"US","TLE_LINE1":"1 45676U 20035V   22335.98770203  .00001278  00000-0  10471-3 0  9993","MEAN_ELEMENT_THEORY":"SGP4","MEAN_MOTION_DOT":"0.00001278","TLE_LINE2":"2 45676  53.0564  25.3669 0001518  68.0313 292.0838 15.06399776138771","REV_AT_EPOCH":"13877","INCLINATION":"53.0564","SITE":"AFETR","PERIOD":"95.592","EPHEMERIS_TYPE":"0","PERIAPSIS":"546.163","OBJECT_ID":"2020-035V","RA_OF_ASC_NODE":"25.3669","ARG_OF_PERICENTER":"68.0313"},{"CENTER_NAME":"EARTH","TLE_LINE1":"1 45677U 20035W   22336.39683860  .00000585  00000-0  58185-4 0  9997","REV_AT_EPOCH":"13846","TLE_LINE2":"2 45677  53.0565  23.5209 0001469  71.9380 288.1769 15.06402135138464","MEAN_MOTION_DOT":"0.00000585","MEAN_ELEMENT_THEORY":"SGP4","FILE":"3679036","COUNTRY_CODE":"US","EPHEMERIS_TYPE":"0","PERIOD":"95.592","SITE":"AFETR","INCLINATION":"53.0565","ARG_OF_PERICENTER":"71.9380","PERIAPSIS":"546.190","OBJECT_ID":"2020-035W","RA_OF_ASC_NODE":"23.5209","SEMIMAJOR_AXIS":"6925.342","RCS_SIZE":"LARGE","MEAN_ANOMALY":"288.1769","NORAD_CAT_ID":"45677","TIME_SYSTEM":"UTC","MEAN_MOTION":"15.06402135","OBJECT_TYPE":"PAYLOAD","ELEMENT_SET_NO":"999","ECCENTRICITY":"0.00014690","CLASSIFICATION_TYPE":"U","REF_FRAME":"TEME","BSTAR":"0.00005818500000","OBJECT_NAME":"STARLINK-1392","MEAN_MOTION_DDOT":"0.0000000000000","GP_ID":"219322588","EPOCH":"2022-12-02T09:31:26.855040","DECAY_DATE":null,"APOAPSIS":"548.224","LAUNCH_DATE":"2020-06-04"},{"BSTAR":"0.00007647200000","OBJECT_NAME":"STARLINK-1393","MEAN_MOTION_DDOT":"0.0000000000000","GP_ID":"219377895","EPOCH":"2022-12-02T14:08:46.635360","DECAY_DATE":null,"LAUNCH_DATE":"2020-06-04","APOAPSIS":"548.313","SEMIMAJOR_AXIS":"6925.367","RCS_SIZE":"LARGE","MEAN_ANOMALY":"314.4994","NORAD_CAT_ID":"45678","TIME_SYSTEM":"UTC","MEAN_MOTION":"15.06393919","OBJECT_TYPE":"PAYLOAD","ECCENTRICITY":"0.00015610","ELEMENT_SET_NO":"999","REF_FRAME":"TEME","CLASSIFICATION_TYPE":"U","EPHEMERIS_TYPE":"0","PERIOD":"95.593","INCLINATION":"53.0545","SITE":"AFETR","ARG_OF_PERICENTER":"45.6122","OBJECT_ID":"2020-035X","PERIAPSIS":"546.151","RA_OF_ASC_NODE":"12.6684","CENTER_NAME":"EARTH","TLE_LINE1":"1 45678U 20035X   22336.58942865  .00000858  00000-0  76472-4 0  9994","MEAN_MOTION_DOT":"0.00000858","TLE_LINE2":"2 45678  53.0545  12.6684 0001561  45.6122 314.4994 15.06393919139029","REV_AT_EPOCH":"13902","MEAN_ELEMENT_THEORY":"SGP4","FILE":"3679625","COUNTRY_CODE":"US"},{"PERIOD":"95.592","EPHEMERIS_TYPE":"0","INCLINATION":"53.0552","SITE":"AFETR","ARG_OF_PERICENTER":"71.7938","PERIAPSIS":"546.205","OBJECT_ID":"2020-035Y","RA_OF_ASC_NODE":"11.7453","CENTER_NAME":"EARTH","TLE_LINE1":"1 45679U 20035Y   22336.79215518  .00001268  00000-0  10401-3 0  9991","MEAN_ELEMENT_THEORY":"SGP4","TLE_LINE2":"2 45679  53.0552  11.7453 0001450  71.7938 288.3209 15.06401498138674","MEAN_MOTION_DOT":"0.00001268","REV_AT_EPOCH":"13867","FILE":"3679366","COUNTRY_CODE":"US","BSTAR":"0.00010401000000","MEAN_MOTION_DDOT":"0.0000000000000","OBJECT_NAME":"STARLINK-1394","EPOCH":"2022-12-02T19:00:42.207552","GP_ID":"219356543","APOAPSIS":"548.213","LAUNCH_DATE":"2020-06-04","DECAY_DATE":null,"SEMIMAJOR_AXIS":"6925.344","RCS_SIZE":"LARGE","MEAN_ANOMALY":"288.3209","TIME_SYSTEM":"UTC","NORAD_CAT_ID":"45679","OBJECT_TYPE":"PAYLOAD","MEAN_MOTION":"15.06401498","ECCENTRICITY":"0.00014500","ELEMENT_SET_NO":"999","CLASSIFICATION_TYPE":"U","REF_FRAME":"TEME"},{"MEAN_ANOMALY":"302.7528","RCS_SIZE":"LARGE","TIME_SYSTEM":"UTC","NORAD_CAT_ID":"45680","SEMIMAJOR_AXIS":"6925.325","CLASSIFICATION_TYPE":"U","REF_FRAME":"TEME","MEAN_MOTION":"15.06407706","OBJECT_TYPE":"PAYLOAD","ECCENTRICITY":"0.00015500","ELEMENT_SET_NO":"999","BSTAR":"0.00012738000000","EPOCH":"2022-12-02T19:11:18.420864","GP_ID":"219378895","LAUNCH_DATE":"2020-06-04","APOAPSIS":"548.263","DECAY_DATE":null,"OBJECT_NAME":"STARLINK-1395","MEAN_MOTION_DDOT":"0.0000000000000","CENTER_NAME":"EARTH","FILE":"3679625","COUNTRY_CODE":"US","TLE_LINE1":"1 45680U 20035Z   22336.79951876  .00001617  00000-0  12738-3 0  9990","MEAN_ELEMENT_THEORY":"SGP4","TLE_LINE2":"2 45680  53.0554  11.7212 0001550  57.3610 302.7528 15.06407706139066","MEAN_MOTION_DOT":"0.00001617","REV_AT_EPOCH":"13906","SITE":"AFETR","INCLINATION":"53.0554","PERIOD":"95.592","EPHEMERIS_TYPE":"0","PERIAPSIS":"546.117","OBJECT_ID":"2020-035Z","RA_OF_ASC_NODE":"11.7212","ARG_OF_PERICENTER":"57.3610"},{"CENTER_NAME":"EARTH","TLE_LINE2":"2 45681  53.0588  11.7353 0001226  73.5132 286.5992 15.06382254139074","MEAN_MOTION_DOT":"0.00003512","REV_AT_EPOCH":"13907","MEAN_ELEMENT_THEORY":"SGP4","TLE_LINE1":"1 45681U 20035AA  22336.79585169  .00003512  00000-0  25464-3 0  9995","COUNTRY_CODE":"US","FILE":"3679625","EPHEMERIS_TYPE":"0","PERIOD":"95.593","SITE":"AFETR","INCLINATION":"53.0588","ARG_OF_PERICENTER":"73.5132","RA_OF_ASC_NODE":"11.7353","PERIAPSIS":"546.419","OBJECT_ID":"2020-035AA","SEMIMAJOR_AXIS":"6925.403","NORAD_CAT_ID":"45681","TIME_SYSTEM":"UTC","RCS_SIZE":"LARGE","MEAN_ANOMALY":"286.5992","ECCENTRICITY":"0.00012260","ELEMENT_SET_NO":"999","MEAN_MOTION":"15.06382254","OBJECT_TYPE":"PAYLOAD","CLASSIFICATION_TYPE":"U","REF_FRAME":"TEME","BSTAR":"0.00025464000000","MEAN_MOTION_DDOT":"0.0000000000000","OBJECT_NAME":"STARLINK-1396","DECAY_DATE":null,"APOAPSIS":"548.117","LAUNCH_DATE":"2020-06-04","GP_ID":"219379646","EPOCH":"2022-12-02T19:06:01.586016"}];
